start=new Date('2023-05-10T00:00:00.000Z').valueOf();
sats=[{"ELEMENT_SET_NO":"999","INCLINATION":"53.2154","CLASSIFICATION_TYPE":"U","TLE_LINE2":"2 54760  53.2154  13.9674 0001254  80.1182 279.9951 15.08854337 23557","PERIAPSIS":"538.834","OBJECT_TYPE":"PAYLOAD","OBJECT_ID":"2022-175C","FILE":"3904305","ECCENTRICITY":"0.00012540","EPHEMERIS_TYPE":"0","RCS_SIZE":"LARGE","TIME_SYSTEM":"UTC","BSTAR":"0.00085726000000","MEAN_ELEMENT_THEORY":"SGP4","CENTER_NAME":"EARTH","SEMIMAJOR_AXIS":"6917.837","MEAN_MOTION_DOT":"0.00013387","MEAN_ANOMALY":"279.9951","COUNTRY_CODE":"US","RA_OF_ASC_NODE":"13.9674","NORAD_CAT_ID":"54760","REF_FRAME":"TEME","MEAN_MOTION":"15.08854337","MEAN_MOTION_DDOT":"0.0000000000000","APOAPSIS":"540.569","SITE":"AFETR","REV_AT_EPOCH":"2355","DECAY_DATE":null,"ARG_OF_PERICENTER":"80.1182","LAUNCH_DATE":"2022-12-17","EPOCH":"2023-05-08T22:36:43.935552","PERIOD":"95.437","GP_ID":"231477695","TLE_LINE1":"1 54760U 22175C   23128.94217518  .00013387  00000-0  85726-3 0  9995","OBJECT_NAME":"STARLINK-5220"},{"RCS_SIZE":"LARGE","TIME_SYSTEM":"UTC","BSTAR":"0.00008661200000","MEAN_ELEMENT_THEORY":"SGP4","CENTER_NAME":"EARTH","SEMIMAJOR_AXIS":"6917.836","MEAN_MOTION_DOT":"0.00001091","MEAN_ANOMALY":"274.5948","ELEMENT_SET_NO":"999","INCLINATION":"53.2176","CLASSIFICATION_TYPE":"U","TLE_LINE2":"2 54761  53.2176  13.9872 0001120  85.5172 274.5948 15.08854556 23552","PERIAPSIS":"538.926","OBJECT_TYPE":"PAYLOAD","FILE":"3904305","ECCENTRICITY":"0.00011200","OBJECT_ID":"2022-175D","EPHEMERIS_TYPE":"0","LAUNCH_DATE":"2022-12-17","EPOCH":"2023-05-08T22:42:01.401984","PERIOD":"95.437","GP_ID":"231476446","TLE_LINE1":"1 54761U 22175D   23128.94584956  .00001091  00000-0  86612-4 0  9994","OBJECT_NAME":"STARLINK-5202","COUNTRY_CODE":"US","RA_OF_ASC_NODE":"13.9872","NORAD_CAT_ID":"54761","REF_FRAME":"TEME","MEAN_MOTION":"15.08854556","APOAPSIS":"540.476","MEAN_MOTION_DDOT":"0.0000000000000","SITE":"AFETR","DECAY_DATE":null,"REV_AT_EPOCH":"2355","ARG_OF_PERICENTER":"85.5172"},{"FILE":"3904553","ECCENTRICITY":"0.00009700","OBJECT_ID":"2022-175E","EPHEMERIS_TYPE":"0","PERIAPSIS":"539.044","TLE_LINE2":"2 54762  53.2167  13.6273 0000970  84.5338 275.5765 15.08850012 23562","INCLINATION":"53.2167","CLASSIFICATION_TYPE":"U","ELEMENT_SET_NO":"999","OBJECT_TYPE":"PAYLOAD","MEAN_MOTION_DOT":"0.00003151","SEMIMAJOR_AXIS":"6917.850","MEAN_ANOMALY":"275.5765","RCS_SIZE":"LARGE","CENTER_NAME":"EARTH","MEAN_ELEMENT_THEORY":"SGP4","BSTAR":"0.00021594000000","TIME_SYSTEM":"UTC","MEAN_MOTION_DDOT":"0.0000000000000","APOAPSIS":"540.386","ARG_OF_PERICENTER":"84.5338","REV_AT_EPOCH":"2356","DECAY_DATE":null,"SITE":"AFETR","NORAD_CAT_ID":"54762","COUNTRY_CODE":"US","RA_OF_ASC_NODE":"13.6273","MEAN_MOTION":"15.08850012","REF_FRAME":"TEME","TLE_LINE1":"1 54762U 22175E   23129.00199776  .00003151  00000-0  21594-3 0  9991","GP_ID":"231508960","OBJECT_NAME":"STARLINK-5214","LAUNCH_DATE":"2022-12-17","PERIOD":"95.437","EPOCH":"2023-05-09T00:02:52.606464"},{"ECCENTRICITY":"0.00012250","FILE":"3904553","OBJECT_ID":"2022-175F","EPHEMERIS_TYPE":"0","TLE_LINE2":"2 54763  53.2159  13.6452 0001225  79.3053 280.8077 15.08860503 23564","PERIAPSIS":"538.835","ELEMENT_SET_NO":"999","CLASSIFICATION_TYPE":"U","INCLINATION":"53.2159","OBJECT_TYPE":"PAYLOAD","MEAN_MOTION_DOT":"0.00017792","SEMIMAJOR_AXIS":"6917.818","MEAN_ANOMALY":"280.8077","RCS_SIZE":"LARGE","CENTER_NAME":"EARTH","TIME_SYSTEM":"UTC","BSTAR":"0.00113250000000","MEAN_ELEMENT_THEORY":"SGP4","APOAPSIS":"540.530","MEAN_MOTION_DDOT":"0.0000000000000","ARG_OF_PERICENTER":"79.3053","SITE":"AFETR","REV_AT_EPOCH":"2356","DECAY_DATE":null,"NORAD_CAT_ID":"54763","COUNTRY_CODE":"US","RA_OF_ASC_NODE":"13.6452","REF_FRAME":"TEME","MEAN_MOTION":"15.08860503","TLE_LINE1":"1 54763U 22175F   23129.00472996  .00017792  00000-0  11325-2 0  9996","GP_ID":"231509712","OBJECT_NAME":"STARLINK-5191","LAUNCH_DATE":"2022-12-17","EPOCH":"2023-05-09T00:06:48.668544","PERIOD":"95.436"},{"SEMIMAJOR_AXIS":"6917.791","MEAN_MOTION_DOT":"0.00020280","MEAN_ANOMALY":"264.0246","RCS_SIZE":"LARGE","BSTAR":"0.00128760000000","TIME_SYSTEM":"UTC","MEAN_ELEMENT_THEORY":"SGP4","CENTER_NAME":"EARTH","FILE":"3904553","OBJECT_ID":"2022-175G","ECCENTRICITY":"0.00011040","EPHEMERIS_TYPE":"0","ELEMENT_SET_NO":"999","INCLINATION":"53.2165","CLASSIFICATION_TYPE":"U","TLE_LINE2":"2 54764  53.2165  13.2998 0001104  96.0871 264.0246 15.08869365 23571","PERIAPSIS":"538.892","OBJECT_TYPE":"PAYLOAD","GP_ID":"231509963","TLE_LINE1":"1 54764U 22175G   23129.06359595  .00020280  00000-0  12876-2 0  9990","OBJECT_NAME":"STARLINK-5458","LAUNCH_DATE":"2022-12-17","EPOCH":"2023-05-09T01:31:34.690080","PERIOD":"95.436","APOAPSIS":"540.419","MEAN_MOTION_DDOT":"0.0000000000000","SITE":"AFETR","REV_AT_EPOCH":"2357","DECAY_DATE":null,"ARG_OF_PERICENTER":"96.0871","COUNTRY_CODE":"US","RA_OF_ASC_NODE":"13.2998","NORAD_CAT_ID":"54764","REF_FRAME":"TEME","MEAN_MOTION":"15.08869365"},{"LAUNCH_DATE":"2022-12-17","PERIOD":"95.436","EPOCH":"2023-05-09T01:36:53.011872","TLE_LINE1":"1 54765U 22175H   23129.06728023  .00016823  00000-0  10718-2 0  9998","GP_ID":"231510701","OBJECT_NAME":"STARLINK-5466","COUNTRY_CODE":"US","RA_OF_ASC_NODE":"13.3203","NORAD_CAT_ID":"54765","MEAN_MOTION":"15.08865864","REF_FRAME":"TEME","MEAN_MOTION_DDOT":"0.0000000000000","APOAPSIS":"540.237","DECAY_DATE":null,"REV_AT_EPOCH":"2357","SITE":"AFETR","ARG_OF_PERICENTER":"79.8190","RCS_SIZE":"LARGE","MEAN_ELEMENT_THEORY":"SGP4","TIME_SYSTEM":"UTC","BSTAR":"0.00107180000000","CENTER_NAME":"EARTH","SEMIMAJOR_AXIS":"6917.801","MEAN_MOTION_DOT":"0.00016823","MEAN_ANOMALY":"280.2895","CLASSIFICATION_TYPE":"U","INCLINATION":"53.2170","ELEMENT_SET_NO":"999","PERIAPSIS":"539.096","TLE_LINE2":"2 54765  53.2170  13.3203 0000825  79.8190 280.2895 15.08865864 23570","OBJECT_TYPE":"PAYLOAD","ECCENTRICITY":"0.00008250","FILE":"3904553","OBJECT_ID":"2022-175H","EPHEMERIS_TYPE":"0"},{"GP_ID":"231509461","TLE_LINE1":"1 54766U 22175J   23128.98998560  .00010565  00000-0  68056-3 0  9990","OBJECT_NAME":"STARLINK-5471","LAUNCH_DATE":"2022-12-17","EPOCH":"2023-05-08T23:45:34.755840","PERIOD":"95.436","MEAN_MOTION_DDOT":"0.0000000000000","APOAPSIS":"540.466","SITE":"AFETR","REV_AT_EPOCH":"2356","DECAY_DATE":null,"ARG_OF_PERICENTER":"103.1784","COUNTRY_CODE":"US","RA_OF_ASC_NODE":"13.5521","NORAD_CAT_ID":"54766","REF_FRAME":"TEME","MEAN_MOTION":"15.08856975","SEMIMAJOR_AXIS":"6917.829","MEAN_MOTION_DOT":"0.00010565","MEAN_ANOMALY":"256.9333","RCS_SIZE":"LARGE","BSTAR":"0.00068056000000","TIME_SYSTEM":"UTC","MEAN_ELEMENT_THEORY":"SGP4","CENTER_NAME":"EARTH","FILE":"3904553","OBJECT_ID":"2022-175J","ECCENTRICITY":"0.00011160","EPHEMERIS_TYPE":"0","ELEMENT_SET_NO":"999","INCLINATION":"53.2165","CLASSIFICATION_TYPE":"U","TLE_LINE2":"2 54766  53.2165  13.5521 0001116 103.1784 256.9333 15.08856975 23563","PERIAPSIS":"538.921","OBJECT_TYPE":"PAYLOAD"},{"MEAN_ANOMALY":"256.2324","SEMIMAJOR_AXIS":"6917.836","MEAN_MOTION_DOT":"0.00009577","MEAN_ELEMENT_THEORY":"SGP4","BSTAR":"0.00061873000000","TIME_SYSTEM":"UTC","CENTER_NAME":"EARTH","RCS_SIZE":"LARGE","EPHEMERIS_TYPE":"0","ECCENTRICITY":"0.00010180","FILE":"3904553","OBJECT_ID":"2022-175K","OBJECT_TYPE":"PAYLOAD","CLASSIFICATION_TYPE":"U","INCLINATION":"53.2171","ELEMENT_SET_NO":"999","PERIAPSIS":"538.997","TLE_LINE2":"2 54767  53.2171  13.5287 0001018 103.8782 256.2324 15.08854602 23564","OBJECT_NAME":"STARLINK-5472","GP_ID":"231509212","TLE_LINE1":"1 54767U 22175K   23128.98630187  .00009577  00000-0  61873-3 0  9990","PERIOD":"95.437","EPOCH":"2023-05-08T23:40:16.481568","LAUNCH_DATE":"2022-12-17","REV_AT_EPOCH":"2356","DECAY_DATE":null,"SITE":"AFETR","ARG_OF_PERICENTER":"103.8782","APOAPSIS":"540.405","MEAN_MOTION_DDOT":"0.0000000000000","MEAN_MOTION":"15.08854602","REF_FRAME":"TEME","RA_OF_ASC_NODE":"13.5287","COUNTRY_CODE":"US","NORAD_CAT_ID":"54767"},{"LAUNCH_DATE":"2022-12-17","PERIOD":"95.437","EPOCH":"2023-05-08T21:00:40.670208","GP_ID":"231477696","TLE_LINE1":"1 54768U 22175L   23128.87547072 -.00000334  00000-0 -28796-5 0  9992","OBJECT_NAME":"STARLINK-5444","COUNTRY_CODE":"US","RA_OF_ASC_NODE":"359.2938","NORAD_CAT_ID":"54768","MEAN_MOTION":"15.08847332","REF_FRAME":"TEME","MEAN_MOTION_DDOT":"0.0000000000000","APOAPSIS":"540.510","DECAY_DATE":null,"REV_AT_EPOCH":"2375","SITE":"AFETR","ARG_OF_PERICENTER":"75.2056","RCS_SIZE":"LARGE","MEAN_ELEMENT_THEORY":"SGP4","TIME_SYSTEM":"UTC","BSTAR":"-0.00000287960000","CENTER_NAME":"EARTH","SEMIMAJOR_AXIS":"6917.858","MEAN_MOTION_DOT":"-0.00000334","MEAN_ANOMALY":"284.9062","CLASSIFICATION_TYPE":"U","INCLINATION":"53.2164","ELEMENT_SET_NO":"999","PERIAPSIS":"538.936","TLE_LINE2":"2 54768  53.2164 359.2938 0001137  75.2056 284.9062 15.08847332 23758","OBJECT_TYPE":"PAYLOAD","FILE":"3904305","OBJECT_ID":"2022-175L","ECCENTRICITY":"0.00011370","EPHEMERIS_TYPE":"0"},{"DECAY_DATE":null,"REV_AT_EPOCH":"2357","SITE":"AFETR","ARG_OF_PERICENTER":"78.0008","APOAPSIS":"540.544","MEAN_MOTION_DDOT":"0.0000000000000","MEAN_MOTION":"15.08859566","REF_FRAME":"TEME","COUNTRY_CODE":"US","RA_OF_ASC_NODE":"13.2757","NORAD_CAT_ID":"54769","OBJECT_NAME":"STARLINK-5404","TLE_LINE1":"1 54769U 22175M   23129.05991133  .00014090  00000-0  90114-3 0  9998","GP_ID":"231510201","PERIOD":"95.436","EPOCH":"2023-05-09T01:26:16.338912","LAUNCH_DATE":"2022-12-17","EPHEMERIS_TYPE":"0","ECCENTRICITY":"0.00012410","FILE":"3904553","OBJECT_ID":"2022-175M","OBJECT_TYPE":"PAYLOAD","CLASSIFICATION_TYPE":"U","INCLINATION":"53.2172","ELEMENT_SET_NO":"999","PERIAPSIS":"538.827","TLE_LINE2":"2 54769  53.2172  13.2757 0001241  78.0008 282.1123 15.08859566 23578","MEAN_ANOMALY":"282.1123","SEMIMAJOR_AXIS":"6917.821","MEAN_MOTION_DOT":"0.00014090","MEAN_ELEMENT_THEORY":"SGP4","BSTAR":"0.00090114000000","TIME_SYSTEM":"UTC","CENTER_NAME":"EARTH","RCS_SIZE":"LARGE"}];
